{"type": "FeatureCollection", "features": [ {"type": "Feature", "properties": {"norad_id": 35959, "name": "COSMOS 2251 DEB", "group": "cosmos-2251-debris", "lat": -31.331172487301487, "lon": -41.63438219479628, "alt_km": 782.1304253840553, "timestamp": "2025-12-03T19:33:07.374191+00:00", "meta": {"OBJECT_NAME": "COSMOS 2251 DEB", "OBJECT_ID": "1993-036AUZ", "EPOCH": "2025-12-03T09:39:32.961312", "MEAN_MOTION": 14.34124856, "ECCENTRICITY": 0.0021207, "INCLINATION": 74.0321, "RA_OF_ASC_NODE": 329.1579, "ARG_OF_PERICENTER": 52.6115, "MEAN_ANOMALY": 307.6963, "EPHEMERIS_TYPE": 0, "CLASSIFICATION_TYPE": "U", "NORAD_CAT_ID": 35959, "ELEMENT_SET_NO": 999, "REV_AT_EPOCH": 84794, "BSTAR": 0.00017921, "MEAN_MOTION_DOT": 4.77e-06, "MEAN_MOTION_DDOT": 0}, "tle": {"line1": "1 35959U 93036AUZ 25337.40246483  .00000477  00000+0  17921-3 0  9993", "line2": "2 35959  74.0321 329.1579 0021207  52.6115 307.6963 14.34124856847942"}}, "geometry": {"type": "Point", "coordinates": [-41.63438219479628, -31.331172487301487]}}, {"type": "Feature", "properties": {"norad_id": 35961, "name": "COSMOS 2251 DEB", "group": "cosmos-2251-debris", "lat": 70.90421119795808, "lon": -16.517269169100746, "alt_km": 786.0924758107849, "timestamp": "2025-12-03T19:33:07.374201+00:00", "meta": {"OBJECT_NAME": "COSMOS 2251 DEB", "OBJECT_ID": "1993-036AVB", "EPOCH": "2025-11-29T09:08:47.173056", "MEAN_MOTION": 14.05319505, "ECCENTRICITY": 0.01924432, "INCLINATION": 73.9254, "RA_OF_ASC_NODE": 227.671, "ARG_OF_PERICENTER": 163.9834, "MEAN_ANOMALY": 196.7506, "EPHEMERIS_TYPE": 0, "CLASSIFICATION_TYPE": "U", "NORAD_CAT_ID": 35961, "ELEMENT_SET_NO": 999, "REV_AT_EPOCH": 62494, "BSTAR": 0.00062484461, "MEAN_MOTION_DOT": 1.171e-05, "MEAN_MOTION_DDOT": 0}, "tle": {"line1": "1 35961U 93036AVB 25333.38110154  .00001171  00000+0  62484-3 0  9990", "line2": "2 35961  73.9254 227.6710 0192443 163.9834 196.7506 14.05319505624940"}}, "geometry": {"type": "Point", "coordinates": [-16.517269169100746, 70.90421119795808]}}, {"type": "Feature", "properties": {"norad_id": 35979, "name": "COSMOS 2251 DEB", "group": "cosmos-2251-debris", "lat": -65.14773502339969, "lon": -142.40612381588727, "alt_km": 661.2707174473944, "timestamp": "2025-12-03T19:33:07.374211+00:00", "meta": {"OBJECT_NAME": "COSMOS 2251 DEB", "OBJECT_ID": "1993-036AVV", "EPOCH": "2025-12-03T12:31:35.824224", "MEAN_MOTION": 14.74433197, "ECCENTRICITY": 0.0058695, "INCLINATION": 74.0111, "RA_OF_ASC_NODE": 256.413, "ARG_OF_PERICENTER": 30.7262, "MEAN_ANOMALY": 146.1139, "EPHEMERIS_TYPE": 0, "CLASSIFICATION_TYPE": "U", "NORAD_CAT_ID": 35979, "ELEMENT_SET_NO": 999, "REV_AT_EPOCH": 88497, "BSTAR": 0.0015649, "MEAN_MOTION_DOT": 0.00010665, "MEAN_MOTION_DDOT": 0}, "tle": {"line1": "1 35979U 93036AVV 25337.52194241  .00010665  00000+0  15649-2 0  9996", "line2": "2 35979  74.0111 256.4130 0058695  30.7262 146.1139 14.74433197884977"}}, "geometry": {"type": "Point", "coordinates": [-142.40612381588727, -65.14773502339969]}}, {"type": "Feature", "properties": {"norad_id": 35980, "name": "COSMOS 2251 DEB", "group": "cosmos-2251-debris", "lat": -55.13855448116026, "lon": 115.34285358587546, "alt_km": 668.5975398863065, "timestamp": "2025-12-03T19:33:07.374222+00:00", "meta": {"OBJECT_NAME": "COSMOS 2251 DEB", "OBJECT_ID": "1993-036AVW", "EPOCH": "2025-12-02T19:08:08.015136", "MEAN_MOTION": 14.59062146, "ECCENTRICITY": 0.00537712, "INCLINATION": 73.91, "RA_OF_ASC_NODE": 141.7735, "ARG_OF_PERICENTER": 277.5645, "MEAN_ANOMALY": 81.9413, "EPHEMERIS_TYPE": 0, "CLASSIFICATION_TYPE": "U", "NORAD_CAT_ID": 35980, "ELEMENT_SET_NO": 999, "REV_AT_EPOCH": 61341, "BSTAR": 0.002036555, "MEAN_MOTION_DOT": 9.752e-05, "MEAN_MOTION_DDOT": 0}, "tle": {"line1": "1 35980U 93036AVW 25336.79731499  .00009752  00000+0  20366-2 0  9995", "line2": "2 35980  73.9100 141.7735 0053771 277.5645  81.9413 14.59062146613413"}}, "geometry": {"type": "Point", "coordinates": [115.34285358587546, -55.13855448116026]}}, {"type": "Feature", "properties": {"norad_id": 35982, "name": "COSMOS 2251 DEB", "group": "cosmos-2251-debris", "lat": 62.31418172831421, "lon": 151.00748257972296, "alt_km": 643.2610037247505, "timestamp": "2025-12-03T19:33:07.374232+00:00", "meta": {"OBJECT_NAME": "COSMOS 2251 DEB", "OBJECT_ID": "1993-036AVY", "EPOCH": "2025-12-02T08:34:16.837248", "MEAN_MOTION": 14.62661331, "ECCENTRICITY": 0.00640231, "INCLINATION": 74.0586, "RA_OF_ASC_NODE": 6.8033, "ARG_OF_PERICENTER": 76.2999, "MEAN_ANOMALY": 284.5285, "EPHEMERIS_TYPE": 0, "CLASSIFICATION_TYPE": "U", "NORAD_CAT_ID": 35982, "ELEMENT_SET_NO": 999, "REV_AT_EPOCH": 86014, "BSTAR": 0.00060971917, "MEAN_MOTION_DOT": 3.165e-05, "MEAN_MOTION_DDOT": 0}, "tle": {"line1": "1 35982U 93036AVY 25336.35713932  .00003165  00000+0  60972-3 0  9991", "line2": "2 35982  74.0586   6.8033 0064023  76.2999 284.5285 14.62661331860142"}}, "geometry": {"type": "Point", "coordinates": [151.00748257972296, 62.31418172831421]}}, {"type": "Feature", "properties": {"norad_id": 35987, "name": "COSMOS 2251 DEB", "group": "cosmos-2251-debris", "lat": 14.243982874784392, "lon": -12.56542546690496, "alt_km": 752.9097025388783, "timestamp": "2025-12-03T19:33:07.374242+00:00", "meta": {"OBJECT_NAME": "COSMOS 2251 DEB", "OBJECT_ID": "1993-036AWD", "EPOCH": "2025-12-01T10:54:45.006048", "MEAN_MOTION": 14.43015331, "ECCENTRICITY": 0.00459843, "INCLINATION": 73.9994, "RA_OF_ASC_NODE": 347.6475, "ARG_OF_PERICENTER": 116.8368, "MEAN_ANOMALY": 243.7501, "EPHEMERIS_TYPE": 0, "CLASSIFICATION_TYPE": "U", "NORAD_CAT_ID": 35987, "ELEMENT_SET_NO": 999, "REV_AT_EPOCH": 60902, "BSTAR": 0.00096989757, "MEAN_MOTION_DOT": 3.265e-05, "MEAN_MOTION_DDOT": 0}, "tle": {"line1": "1 35987U 93036AWD 25335.45468757  .00003265  00000+0  96990-3 0  9998", "line2": "2 35987  73.9994 347.6475 0045984 116.8368 243.7501 14.43015331609028"}}, "geometry": {"type": "Point", "coordinates": [-12.56542546690496, 14.243982874784392]}}, {"type": "Feature", "properties": {"norad_id": 35989, "name": "COSMOS 2251 DEB", "group": "cosmos-2251-debris", "lat": -66.56996648589003, "lon": 161.58556293639526, "alt_km": 785.2808757123348, "timestamp": "2025-12-03T19:33:07.374252+00:00", "meta": {"OBJECT_NAME": "COSMOS 2251 DEB", "OBJECT_ID": "1993-036AWF", "EPOCH": "2025-11-27T07:00:06.233184", "MEAN_MOTION": 14.37066498, "ECCENTRICITY": 0.00214096, "INCLINATION": 74.0374, "RA_OF_ASC_NODE": 312.2392, "ARG_OF_PERICENTER": 38.1471, "MEAN_ANOMALY": 322.1192, "EPHEMERIS_TYPE": 0, "CLASSIFICATION_TYPE": "U", "NORAD_CAT_ID": 35989, "ELEMENT_SET_NO": 999, "REV_AT_EPOCH": 86957, "BSTAR": 0.00024367588, "MEAN_MOTION_DOT": 6.99e-06, "MEAN_MOTION_DDOT": 0}, "tle": {"line1": "1 35989U 93036AWF 25331.29173881  .00000699  00000+0  24368-3 0  9997", "line2": "2 35989  74.0374 312.2392 0021409  38.1471 322.1192 14.37066498869576"}}, "geometry": {"type": "Point", "coordinates": [161.58556293639526, -66.56996648589003]}}, {"type": "Feature", "properties": {"norad_id": 35993, "name": "COSMOS 2251 DEB", "group": "cosmos-2251-debris", "lat": -49.66123493374616, "lon": -29.72471786544288, "alt_km": 695.2212670665822, "timestamp": "2025-12-03T19:33:07.374262+00:00", "meta": {"OBJECT_NAME": "COSMOS 2251 DEB", "OBJECT_ID": "1993-036AWK", "EPOCH": "2025-11-27T19:35:01.348512", "MEAN_MOTION": 14.65130544, "ECCENTRICITY": 0.00298008, "INCLINATION": 74.0156, "RA_OF_ASC_NODE": 1.5524, "ARG_OF_PERICENTER": 195.1174, "MEAN_ANOMALY": 164.9107, "EPHEMERIS_TYPE": 0, "CLASSIFICATION_TYPE": "U", "NORAD_CAT_ID": 35993, "ELEMENT_SET_NO": 999, "REV_AT_EPOCH": 60224, "BSTAR": 0.00071132597, "MEAN_MOTION_DOT": 3.818e-05, "MEAN_MOTION_DDOT": 0}, "tle": {"line1": "1 35993U 93036AWK 25331.81598783  .00003818  00000+0  71133-3 0  9990", "line2": "2 35993  74.0156   1.5524 0029800 195.1174 164.9107 14.65130544602243"}}, "geometry": {"type": "Point", "coordinates": [-29.72471786544288, -49.66123493374616]}}, {"type": "Feature", "properties": {"norad_id": 35996, "name": "COSMOS 2251 DEB", "group": "cosmos-2251-debris", "lat": 63.86355952077391, "lon": 157.59209664353102, "alt_km": 584.2678605192286, "timestamp": "2025-12-03T19:33:07.374272+00:00", "meta": {"OBJECT_NAME": "COSMOS 2251 DEB", "OBJECT_ID": "1993-036AWN", "EPOCH": "2025-12-02T16:11:16.473408", "MEAN_MOTION": 15.08726823, "ECCENTRICITY": 0.00894127, "INCLINATION": 74.0129, "RA_OF_ASC_NODE": 124.191, "ARG_OF_PERICENTER": 217.4013, "MEAN_ANOMALY": 142.0936, "EPHEMERIS_TYPE": 0, "CLASSIFICATION_TYPE": "U", "NORAD_CAT_ID": 35996, "ELEMENT_SET_NO": 999, "REV_AT_EPOCH": 72174, "BSTAR": 0.0010208525, "MEAN_MOTION_DOT": 0.00017591, "MEAN_MOTION_DDOT": 0}, "tle": {"line1": "1 35996U 93036AWN 25336.67449622  .00017591  00000+0  10209-2 0  9998", "line2": "2 35996  74.0129 124.1910 0089412 217.4013 142.0936 15.08726823721745"}}, "geometry": {"type": "Point", "coordinates": [157.59209664353102, 63.86355952077391]}}, {"type": "Feature", "properties": {"norad_id": 35997, "name": "COSMOS 2251 DEB", "group": "cosmos-2251-debris", "lat": -30.756056643564627, "lon": 33.882270472907834, "alt_km": 722.9591738378349, "timestamp": "2025-12-03T19:33:07.374282+00:00", "meta": {"OBJECT_NAME": "COSMOS 2251 DEB", "OBJECT_ID": "1993-036AWP", "EPOCH": "2025-12-02T07:50:00.553056", "MEAN_MOTION": 14.51236016, "ECCENTRICITY": 0.00159085, "INCLINATION": 74.0439, "RA_OF_ASC_NODE": 206.8774, "ARG_OF_PERICENTER": 283.0639, "MEAN_ANOMALY": 76.8746, "EPHEMERIS_TYPE": 0, "CLASSIFICATION_TYPE": "U", "NORAD_CAT_ID": 35997, "ELEMENT_SET_NO": 999, "REV_AT_EPOCH": 70733, "BSTAR": 0.00076938672, "MEAN_MOTION_DOT": 3.037e-05, "MEAN_MOTION_DDOT": 0}, "tle": {"line1": "1 35997U 93036AWP 25336.32639529  .00003037  00000+0  76939-3 0  9991", "line2": "2 35997  74.0439 206.8774 0015908 283.0639  76.8746 14.51236016707337"}}, "geometry": {"type": "Point", "coordinates": [33.882270472907834, -30.756056643564627]}}]}